JILIN-1 GAOFEN 03D10    
1 51840U 22019S   26094.23103117  .00449383  77775-4  15286-2 0  9993
2 51840  97.3645 189.3117 0004596 232.5253 127.5602 15.89801378228522
JILIN-1 GAOFEN 03D12    
1 51841U 22019T   26095.27064895  .00188947  00000+0  11354-2 0  9998
2 51841  97.3637 187.9246 0001503 236.1069 124.0054 15.77206898228549
JILIN-1 GAOFEN 03D18    
1 51844U 22019W   26094.91520870  .00361554  50012-4  12628-2 0  9996
2 51844  97.3634 189.0984 0002499 272.7181  87.3805 15.89286831228494
2022-023F               
1 51951U 22023F   26095.28169017  .00025098  00000+0  10056-2 0  9993
2 51951  63.4514 161.2937 0124259 344.6221  15.1128 15.18089055226640
CZ-4C R/B               
1 52085U 22027B   26095.14759276 -.00000082  00000+0  13715-4 0  9997
2 52085  63.3925 253.3621 0226026  22.8715 338.2198 13.65474836202066
MERIDIAN 10             
1 52145U 22030A   26094.69737367  .00000233  00000+0  00000+0 0  9999
2 52145  62.6755 148.6651 6765243 272.9201  17.7867  2.00615701 29556
OMNI-L1                 
1 52157U 22033A   26095.15477593  .00003667  00000+0  46319-3 0  9990
2 52157  97.8403 175.7622 0006050 150.7290 209.4263 14.82478697216638
ENMAP                   
1 52159U 22033C   26095.23845962  .00000592  00000+0  95503-4 0  9994
2 52159  97.9770 178.5225 0001539 104.4705 255.6675 14.75001562215906
ARCSAT-1                
1 52161U 22033E   26095.23544970  .00016499  00000+0  27775-3 0  9990
2 52161  97.2738 186.5377 0006401 105.4345 254.7615 15.51766750224385
GLOBAL-18               
1 52196U 22034B   26095.14796698  .00027933  00000+0  62135-3 0  9999
2 52196  52.9822 244.9274 0004536  33.9300 326.1994 15.43451528225675
GAOFEN-3 03             
1 52200U 22035A   26095.31345155  .00000282  00000+0  98656-4 0  9999
2 52200  98.4093 104.9429 0001627  76.4003 283.7368 14.42214213210340
DAQI 1                  
1 52257U 22039A   26095.24540499  .00001031  00000+0  23618-3 0  9993
2 52257  98.1441  35.6292 0004770 111.3977 248.7732 14.57634070211312
JILIN-1 GAOFEN 3D05     
1 52390U 22046C   26095.29529341  .00527890  11724-3  13024-2 0  9991
2 52390  97.4770 212.1712 0005427 245.6459 114.4250 15.95974963219146
BRO-6                   
1 52422U 22047AE  26095.23634637  .00043786  00000+0  88803-3 0  9993
2 52422  97.3399 185.1410 0003787 343.6319  16.4807 15.46244823219862
JILIN-1 GAOFEN 3D27     
1 52444U 22048B   26095.29201612  .00090688  00000+0  99716-3 0  9995
2 52444  97.5647 203.4712 0004145 289.7219  70.3591 15.62869437218052
JILIN-1 GAOFEN 3D28     
1 52445U 22048C   26095.26245227  .00098593  00000+0  10193-2 0  9997
2 52445  97.5585 203.4024 0002365 302.4342  57.6687 15.64426633218088
