[{"OBJECT_NAME":"JILIN-1 GAOFEN 03D10","OBJECT_ID":"2022-019S","EPOCH":"2026-04-04T05:32:41.093088","MEAN_MOTION":15.89801378,"ECCENTRICITY":0.00045962,"INCLINATION":97.3645,"RA_OF_ASC_NODE":189.3117,"ARG_OF_PERICENTER":232.5253,"MEAN_ANOMALY":127.5602,"EPHEMERIS_TYPE":0,"CLASSIFICATION_TYPE":"U","NORAD_CAT_ID":51840,"ELEMENT_SET_NO":999,"REV_AT_EPOCH":22852,"BSTAR":0.0015286182,"MEAN_MOTION_DOT":0.00449383,"MEAN_MOTION_DDOT":7.7775406e-5},{"OBJECT_NAME":"JILIN-1 GAOFEN 03D12","OBJECT_ID":"2022-019T","EPOCH":"2026-04-05T06:29:44.069280","MEAN_MOTION":15.77206898,"ECCENTRICITY":0.00015037,"INCLINATION":97.3637,"RA_OF_ASC_NODE":187.9246,"ARG_OF_PERICENTER":236.1069,"MEAN_ANOMALY":124.0054,"EPHEMERIS_TYPE":0,"CLASSIFICATION_TYPE":"U","NORAD_CAT_ID":51841,"ELEMENT_SET_NO":999,"REV_AT_EPOCH":22854,"BSTAR":0.0011354226,"MEAN_MOTION_DOT":0.00188947,"MEAN_MOTION_DDOT":0},{"OBJECT_NAME":"JILIN-1 GAOFEN 03D18","OBJECT_ID":"2022-019W","EPOCH":"2026-04-04T21:57:54.031680","MEAN_MOTION":15.89286831,"ECCENTRICITY":0.00024995,"INCLINATION":97.3634,"RA_OF_ASC_NODE":189.0984,"ARG_OF_PERICENTER":272.7181,"MEAN_ANOMALY":87.3805,"EPHEMERIS_TYPE":0,"CLASSIFICATION_TYPE":"U","NORAD_CAT_ID":51844,"ELEMENT_SET_NO":999,"REV_AT_EPOCH":22849,"BSTAR":0.0012627778,"MEAN_MOTION_DOT":0.00361554,"MEAN_MOTION_DDOT":5.0012346e-5},{"OBJECT_NAME":"2022-023F","OBJECT_ID":"2022-023F","EPOCH":"2026-04-05T06:45:38.030688","MEAN_MOTION":15.18089055,"ECCENTRICITY":0.01242596,"INCLINATION":63.4514,"RA_OF_ASC_NODE":161.2937,"ARG_OF_PERICENTER":344.6221,"MEAN_ANOMALY":15.1128,"EPHEMERIS_TYPE":0,"CLASSIFICATION_TYPE":"U","NORAD_CAT_ID":51951,"ELEMENT_SET_NO":999,"REV_AT_EPOCH":22664,"BSTAR":0.0010056365,"MEAN_MOTION_DOT":0.00025098,"MEAN_MOTION_DDOT":0},{"OBJECT_NAME":"CZ-4C R/B","OBJECT_ID":"2022-027B","EPOCH":"2026-04-05T03:32:32.014464","MEAN_MOTION":13.65474836,"ECCENTRICITY":0.02260263,"INCLINATION":63.3925,"RA_OF_ASC_NODE":253.3621,"ARG_OF_PERICENTER":22.8715,"MEAN_ANOMALY":338.2198,"EPHEMERIS_TYPE":0,"CLASSIFICATION_TYPE":"U","NORAD_CAT_ID":52085,"ELEMENT_SET_NO":999,"REV_AT_EPOCH":20206,"BSTAR":1.3715233e-5,"MEAN_MOTION_DOT":-8.2e-7,"MEAN_MOTION_DDOT":0},{"OBJECT_NAME":"MERIDIAN 10","OBJECT_ID":"2022-030A","EPOCH":"2026-04-04T16:44:13.085088","MEAN_MOTION":2.00615701,"ECCENTRICITY":0.67652439,"INCLINATION":62.6755,"RA_OF_ASC_NODE":148.6651,"ARG_OF_PERICENTER":272.9201,"MEAN_ANOMALY":17.7867,"EPHEMERIS_TYPE":0,"CLASSIFICATION_TYPE":"U","NORAD_CAT_ID":52145,"ELEMENT_SET_NO":999,"REV_AT_EPOCH":2955,"BSTAR":0,"MEAN_MOTION_DOT":2.33e-6,"MEAN_MOTION_DDOT":0},{"OBJECT_NAME":"OMNI-L1","OBJECT_ID":"2022-033A","EPOCH":"2026-04-05T03:42:52.640352","MEAN_MOTION":14.82478697,"ECCENTRICITY":0.00060503,"INCLINATION":97.8403,"RA_OF_ASC_NODE":175.7622,"ARG_OF_PERICENTER":150.729,"MEAN_ANOMALY":209.4263,"EPHEMERIS_TYPE":0,"CLASSIFICATION_TYPE":"U","NORAD_CAT_ID":52157,"ELEMENT_SET_NO":999,"REV_AT_EPOCH":21663,"BSTAR":0.00046318802,"MEAN_MOTION_DOT":3.667e-5,"MEAN_MOTION_DDOT":0},{"OBJECT_NAME":"ENMAP","OBJECT_ID":"2022-033C","EPOCH":"2026-04-05T05:43:22.911168","MEAN_MOTION":14.75001562,"ECCENTRICITY":0.00015397,"INCLINATION":97.977,"RA_OF_ASC_NODE":178.5225,"ARG_OF_PERICENTER":104.4705,"MEAN_ANOMALY":255.6675,"EPHEMERIS_TYPE":0,"CLASSIFICATION_TYPE":"U","NORAD_CAT_ID":52159,"ELEMENT_SET_NO":999,"REV_AT_EPOCH":21590,"BSTAR":9.5502531e-5,"MEAN_MOTION_DOT":5.92e-6,"MEAN_MOTION_DDOT":0},{"OBJECT_NAME":"ARCSAT-1","OBJECT_ID":"2022-033E","EPOCH":"2026-04-05T05:39:02.854080","MEAN_MOTION":15.5176675,"ECCENTRICITY":0.0006401,"INCLINATION":97.2738,"RA_OF_ASC_NODE":186.5377,"ARG_OF_PERICENTER":105.4345,"MEAN_ANOMALY":254.7615,"EPHEMERIS_TYPE":0,"CLASSIFICATION_TYPE":"U","NORAD_CAT_ID":52161,"ELEMENT_SET_NO":999,"REV_AT_EPOCH":22438,"BSTAR":0.00027775104,"MEAN_MOTION_DOT":0.00016499,"MEAN_MOTION_DDOT":0},{"OBJECT_NAME":"GLOBAL-18","OBJECT_ID":"2022-034B","EPOCH":"2026-04-05T03:33:04.347072","MEAN_MOTION":15.43451528,"ECCENTRICITY":0.00045369,"INCLINATION":52.9822,"RA_OF_ASC_NODE":244.9274,"ARG_OF_PERICENTER":33.93,"MEAN_ANOMALY":326.1994,"EPHEMERIS_TYPE":0,"CLASSIFICATION_TYPE":"U","NORAD_CAT_ID":52196,"ELEMENT_SET_NO":999,"REV_AT_EPOCH":22567,"BSTAR":0.00062135119,"MEAN_MOTION_DOT":0.00027933,"MEAN_MOTION_DDOT":0},{"OBJECT_NAME":"GAOFEN-3 03","OBJECT_ID":"2022-035A","EPOCH":"2026-04-05T07:31:22.213920","MEAN_MOTION":14.42214213,"ECCENTRICITY":0.00016273,"INCLINATION":98.4093,"RA_OF_ASC_NODE":104.9429,"ARG_OF_PERICENTER":76.4003,"MEAN_ANOMALY":283.7368,"EPHEMERIS_TYPE":0,"CLASSIFICATION_TYPE":"U","NORAD_CAT_ID":52200,"ELEMENT_SET_NO":999,"REV_AT_EPOCH":21034,"BSTAR":9.8655678e-5,"MEAN_MOTION_DOT":2.82e-6,"MEAN_MOTION_DDOT":0},{"OBJECT_NAME":"DAQI 1","OBJECT_ID":"2022-039A","EPOCH":"2026-04-05T05:53:22.991136","MEAN_MOTION":14.5763407,"ECCENTRICITY":0.00047709,"INCLINATION":98.1441,"RA_OF_ASC_NODE":35.6292,"ARG_OF_PERICENTER":111.3977,"MEAN_ANOMALY":248.7732,"EPHEMERIS_TYPE":0,"CLASSIFICATION_TYPE":"U","NORAD_CAT_ID":52257,"ELEMENT_SET_NO":999,"REV_AT_EPOCH":21131,"BSTAR":0.00023617738,"MEAN_MOTION_DOT":1.031e-5,"MEAN_MOTION_DDOT":0},{"OBJECT_NAME":"JILIN-1 GAOFEN 3D05","OBJECT_ID":"2022-046C","EPOCH":"2026-04-05T07:05:13.350624","MEAN_MOTION":15.95974963,"ECCENTRICITY":0.00054271,"INCLINATION":97.477,"RA_OF_ASC_NODE":212.1712,"ARG_OF_PERICENTER":245.6459,"MEAN_ANOMALY":114.425,"EPHEMERIS_TYPE":0,"CLASSIFICATION_TYPE":"U","NORAD_CAT_ID":52390,"ELEMENT_SET_NO":999,"REV_AT_EPOCH":21914,"BSTAR":0.0013023863,"MEAN_MOTION_DOT":0.0052789,"MEAN_MOTION_DDOT":0.00011724256},{"OBJECT_NAME":"BRO-6","OBJECT_ID":"2022-047AE","EPOCH":"2026-04-05T05:40:20.326368","MEAN_MOTION":15.46244823,"ECCENTRICITY":0.00037878,"INCLINATION":97.3399,"RA_OF_ASC_NODE":185.141,"ARG_OF_PERICENTER":343.6319,"MEAN_ANOMALY":16.4807,"EPHEMERIS_TYPE":0,"CLASSIFICATION_TYPE":"U","NORAD_CAT_ID":52422,"ELEMENT_SET_NO":999,"REV_AT_EPOCH":21986,"BSTAR":0.00088803335,"MEAN_MOTION_DOT":0.00043786,"MEAN_MOTION_DDOT":0},{"OBJECT_NAME":"JILIN-1 GAOFEN 3D27","OBJECT_ID":"2022-048B","EPOCH":"2026-04-05T07:00:30.192768","MEAN_MOTION":15.62869437,"ECCENTRICITY":0.00041451,"INCLINATION":97.5647,"RA_OF_ASC_NODE":203.4712,"ARG_OF_PERICENTER":289.7219,"MEAN_ANOMALY":70.3591,"EPHEMERIS_TYPE":0,"CLASSIFICATION_TYPE":"U","NORAD_CAT_ID":52444,"ELEMENT_SET_NO":999,"REV_AT_EPOCH":21805,"BSTAR":0.00099715674,"MEAN_MOTION_DOT":0.00090688,"MEAN_MOTION_DDOT":0},{"OBJECT_NAME":"JILIN-1 GAOFEN 3D28","OBJECT_ID":"2022-048C","EPOCH":"2026-04-05T06:17:55.876128","MEAN_MOTION":15.64426633,"ECCENTRICITY":0.00023652,"INCLINATION":97.5585,"RA_OF_ASC_NODE":203.4024,"ARG_OF_PERICENTER":302.4342,"MEAN_ANOMALY":57.6687,"EPHEMERIS_TYPE":0,"CLASSIFICATION_TYPE":"U","NORAD_CAT_ID":52445,"ELEMENT_SET_NO":999,"REV_AT_EPOCH":21808,"BSTAR":0.0010192634,"MEAN_MOTION_DOT":0.00098593,"MEAN_MOTION_DDOT":0}]
